{
  "type": "FeatureCollection",
  "features": [
    {
      "type": "Feature",
      "properties": {
        "norad_id": 36559,
        "name": "COSMOS 2251 DEB",
        "group": "cosmos-2251-debris",
        "lat": -46.292534593961875,
        "lon": 0.8391475839956186,
        "alt_km": 949.7585039613004,
        "timestamp": "2025-12-07T20:38:14.460845+00:00",
        "meta_object_name": "COSMOS 2251 DEB",
        "meta_object_id": "1993-036BDV",
        "meta_epoch": "2025-12-03T03:17:00.548160",
        "meta_mean_motion": 13.95062123,
        "meta_eccentricity": 0.02603187,
        "meta_inclination": 74.1298,
        "meta_ra_of_asc_node": 26.2197,
        "meta_arg_of_pericenter": 61.9669,
        "meta_mean_anomaly": 300.7529,
        "meta_ephemeris_type": 0,
        "meta_classification_type": "U",
        "meta_norad_cat_id": 36559,
        "meta_element_set_no": 999,
        "meta_rev_at_epoch": 80960,
        "meta_bstar": 0.0032733881,
        "meta_mean_motion_dot": 5.835e-05,
        "meta_mean_motion_ddot": 0,
        "tle_line1": "1 36559U 93036BDV 25337.13681190  .00005835  00000+0  32734-2 0  9999",
        "tle_line2": "2 36559  74.1298  26.2197 0260318  61.9669 300.7529 13.95062123809606"
      },
      "geometry": {
        "type": "Point",
        "coordinates": [
          0.8391475839956186,
          -46.292534593961875
        ]
      }
    },
    {
      "type": "Feature",
      "properties": {
        "norad_id": 36614,
        "name": "COSMOS 2251 DEB",
        "group": "cosmos-2251-debris",
        "lat": 68.6270156321969,
        "lon": -129.02379453726758,
        "alt_km": 697.2586064965581,
        "timestamp": "2025-12-07T20:38:14.460856+00:00",
        "meta_object_name": "COSMOS 2251 DEB",
        "meta_object_id": "1993-036BEC",
        "meta_epoch": "2025-12-03T20:55:07.059072",
        "meta_mean_motion": 14.60089968,
        "meta_eccentricity": 0.0016551,
        "meta_inclination": 74.0216,
        "meta_ra_of_asc_node": 191.525,
        "meta_arg_of_pericenter": 261.9036,
        "meta_mean_anomaly": 98.0252,
        "meta_ephemeris_type": 0,
        "meta_classification_type": "U",
        "meta_norad_cat_id": 36614,
        "meta_element_set_no": 999,
        "meta_rev_at_epoch": 65483,
        "meta_bstar": 0.0023551,
        "meta_mean_motion_dot": 0.00011335,
        "meta_mean_motion_ddot": 0,
        "tle_line1": "1 36614U 93036BEC 25337.87160948  .00011335  00000+0  23551-2 0  9994",
        "tle_line2": "2 36614  74.0216 191.5250 0016551 261.9036  98.0252 14.60089968654833"
      },
      "geometry": {
        "type": "Point",
        "coordinates": [
          -129.02379453726758,
          68.6270156321969
        ]
      }
    },
    {
      "type": "Feature",
      "properties": {
        "norad_id": 36622,
        "name": "COSMOS 2251 DEB",
        "group": "cosmos-2251-debris",
        "lat": -37.91779299070383,
        "lon": -12.050012759591624,
        "alt_km": 632.1470696896404,
        "timestamp": "2025-12-07T20:38:14.460865+00:00",
        "meta_object_name": "COSMOS 2251 DEB",
        "meta_object_id": "1993-036BEL",
        "meta_epoch": "2025-12-05T18:50:31.171200",
        "meta_mean_motion": 14.76101592,
        "meta_eccentricity": 0.00686912,
        "meta_inclination": 74.0121,
        "meta_ra_of_asc_node": 159.111,
        "meta_arg_of_pericenter": 295.8751,
        "meta_mean_anomaly": 63.5351,
        "meta_ephemeris_type": 0,
        "meta_classification_type": "U",
        "meta_norad_cat_id": 36622,
        "meta_element_set_no": 999,
        "meta_rev_at_epoch": 66647,
        "meta_bstar": 0.0010697959,
        "meta_mean_motion_dot": 7.647e-05,
        "meta_mean_motion_ddot": 0,
        "tle_line1": "1 36622U 93036BEL 25339.78508300  .00007647  00000+0  10698-2 0  9992",
        "tle_line2": "2 36622  74.0121 159.1110 0068691 295.8751  63.5351 14.76101592666479"
      },
      "geometry": {
        "type": "Point",
        "coordinates": [
          -12.050012759591624,
          -37.91779299070383
        ]
      }
    },
    {
      "type": "Feature",
      "properties": {
        "norad_id": 36632,
        "name": "COSMOS 2251 DEB",
        "group": "cosmos-2251-debris",
        "lat": -57.79928538034872,
        "lon": 148.556874640891,
        "alt_km": 777.0032481655326,
        "timestamp": "2025-12-07T20:38:14.460875+00:00",
        "meta_object_name": "COSMOS 2251 DEB",
        "meta_object_id": "1993-036BEW",
        "meta_epoch": "2025-12-06T15:14:20.059296",
        "meta_mean_motion": 14.43120939,
        "meta_eccentricity": 0.00315725,
        "meta_inclination": 73.999,
        "meta_ra_of_asc_node": 303.7287,
        "meta_arg_of_pericenter": 53.381,
        "meta_mean_anomaly": 307.0243,
        "meta_ephemeris_type": 0,
        "meta_classification_type": "U",
        "meta_norad_cat_id": 36632,
        "meta_element_set_no": 999,
        "meta_rev_at_epoch": 65127,
        "meta_bstar": 0.0015554833,
        "meta_mean_motion_dot": 5.23e-05,
        "meta_mean_motion_ddot": 0,
        "tle_line1": "1 36632U 93036BEW 25340.63495439  .00005230  00000+0  15555-2 0  9990",
        "tle_line2": "2 36632  73.9990 303.7287 0031572  53.3810 307.0243 14.43120939651273"
      },
      "geometry": {
        "type": "Point",
        "coordinates": [
          148.556874640891,
          -57.79928538034872
        ]
      }
    },
    {
      "type": "Feature",
      "properties": {
        "norad_id": 37084,
        "name": "COSMOS 2251 DEB",
        "group": "cosmos-2251-debris",
        "lat": -47.30042131926792,
        "lon": 153.30192943942467,
        "alt_km": 533.4379111884282,
        "timestamp": "2025-12-07T20:38:14.460885+00:00",
        "meta_object_name": "COSMOS 2251 DEB",
        "meta_object_id": "1993-036BFE",
        "meta_epoch": "2025-12-06T06:27:50.366016",
        "meta_mean_motion": 15.00839572,
        "meta_eccentricity": 0.00980116,
        "meta_inclination": 74.0252,
        "meta_ra_of_asc_node": 174.6261,
        "meta_arg_of_pericenter": 256.595,
        "meta_mean_anomaly": 102.4298,
        "meta_ephemeris_type": 0,
        "meta_classification_type": "U",
        "meta_norad_cat_id": 37084,
        "meta_element_set_no": 999,
        "meta_rev_at_epoch": 66170,
        "meta_bstar": 0.00083053394,
        "meta_mean_motion_dot": 0.00011674,
        "meta_mean_motion_ddot": 0,
        "tle_line1": "1 37084U 93036BFE 25340.26933294  .00011674  00000+0  83053-3 0  9995",
        "tle_line2": "2 37084  74.0252 174.6261 0098011 256.5950 102.4298 15.00839572661708"
      },
      "geometry": {
        "type": "Point",
        "coordinates": [
          153.30192943942467,
          -47.30042131926792
        ]
      }
    },
    {
      "type": "Feature",
      "properties": {
        "norad_id": 37085,
        "name": "COSMOS 2251 DEB",
        "group": "cosmos-2251-debris",
        "lat": 13.380942495961028,
        "lon": -129.40632959383086,
        "alt_km": 436.6815479394936,
        "timestamp": "2025-12-07T20:38:14.460895+00:00",
        "meta_object_name": "COSMOS 2251 DEB",
        "meta_object_id": "1993-036BFF",
        "meta_epoch": "2025-12-02T23:36:37.668384",
        "meta_mean_motion": 15.39020756,
        "meta_eccentricity": 0.0022856,
        "meta_inclination": 73.9503,
        "meta_ra_of_asc_node": 237.2473,
        "meta_arg_of_pericenter": 76.375,
        "meta_mean_anomaly": 284,
        "meta_ephemeris_type": 0,
        "meta_classification_type": "U",
        "meta_norad_cat_id": 37085,
        "meta_element_set_no": 999,
        "meta_rev_at_epoch": 66987,
        "meta_bstar": 0.0028642077,
        "meta_mean_motion_dot": 0.00113322,
        "meta_mean_motion_ddot": 0,
        "tle_line1": "1 37085U 93036BFF 25336.98376931  .00113322  00000+0  28642-2 0  9994",
        "tle_line2": "2 37085  73.9503 237.2473 0022856  76.3750 284.0000 15.39020756669879"
      },
      "geometry": {
        "type": "Point",
        "coordinates": [
          -129.40632959383086,
          13.380942495961028
        ]
      }
    },
    {
      "type": "Feature",
      "properties": {
        "norad_id": 37089,
        "name": "COSMOS 2251 DEB",
        "group": "cosmos-2251-debris",
        "lat": -71.86144574737978,
        "lon": 35.85467392127962,
        "alt_km": 627.8259835258868,
        "timestamp": "2025-12-07T20:38:14.460905+00:00",
        "meta_object_name": "COSMOS 2251 DEB",
        "meta_object_id": "1993-036BFK",
        "meta_epoch": "2025-11-27T19:45:58.315104",
        "meta_mean_motion": 14.52523041,
        "meta_eccentricity": 0.0136019,
        "meta_inclination": 74.0379,
        "meta_ra_of_asc_node": 173.8866,
        "meta_arg_of_pericenter": 277.3049,
        "meta_mean_anomaly": 81.267,
        "meta_ephemeris_type": 0,
        "meta_classification_type": "U",
        "meta_norad_cat_id": 37089,
        "meta_element_set_no": 999,
        "meta_rev_at_epoch": 65893,
        "meta_bstar": 0.0020033475,
        "meta_mean_motion_dot": 9.221e-05,
        "meta_mean_motion_ddot": 0,
        "tle_line1": "1 37089U 93036BFK 25331.82359161  .00009221  00000+0  20033-2 0  9990",
        "tle_line2": "2 37089  74.0379 173.8866 0136019 277.3049  81.2670 14.52523041658932"
      },
      "geometry": {
        "type": "Point",
        "coordinates": [
          35.85467392127962,
          -71.86144574737978
        ]
      }
    }
  ]
}